# Made by eph2tle, compiled May  4 2023 13:19:02
# Run at Wed May 17 18:11:16 2023
#
#    The following TLEs (Two-Line Elements) were generated by fitting
# a numerically-integrated ephemeris,  based on the orbit given below,
# to the SDP4/SGP4 models.  Each TLE is good for the interval between
# its epoch and the epoch of the subsequent TLE (usually one day).
# The maximum deviation between the numerically integrated ephemerides
# and the TLE-based ephemeris, in kilometers,  is given for each TLE
# as the "worst residual".
#
#    This fitting is done using the 'eph2tle' code packaged with Find_Orb.
# The code has details on how the TLEs were computed :
#
#    https://github.com/Bill-Gray/find_orb/eph2tle.cpp
#
#    Be warned:  the error given is that between the numerically
# integrated ephems and the TLE model.  There will usually be at
# least some additional difference between the ephems and the actual
# motion of the satellite,  especially if the ephemerides are based
# on a short arc.  If the following orbital elements say something
# like "[based on] 10 observations 2015 Jan. 1-13",  and the TLEs
# are for 2015 May,  the extrapolation may be tenuous at best.  If
# your application requires a specific level of accuracy,  you may
# want to contact me;  I can give you some idea as to the fit of the
# underlying data (and possibly TLEs based on newer data).
#
#   You can usually find the underlying observational data,  and the
# fitted orbit,  residuals,  ephemerides,  and sometimes some comments
# about the object,  among the pages listed at
#
#    https://www.projectpluto.com/pluto/mpecs/pseudo.htm
#
#    Also,  if you use a TLE outside the "correct" time range (between
# its MJD and that of the next TLE),  all bets are off.  I've carefully
# computed and minimized the worst error over the "correct" time frame,
# but the ephemeris may (or may not) diverge wildly outside of it.
#
# Ephem range: 60035.000000 60310.000000 1.000000
# Created Wed May 17 18:09:18 2023
# Ephemeris start:  1 Apr 2023  0:00:00
# Ephemeris end:    1 Jan 2024  0:00:00
# Times are all TDT
# Positions/velocities are in equatorial J2000
# Orbital elements:  A10VwK1 = A10VgVe = 2022-134ZZZ
#    Perigee 2023 May 4.01403 +/- 0.000622 TT =  0:20:12 (JD 2460068.51403)
# Epoch 2023 May  4.0 TT = JDT 2460068.5                           Find_Orb
# M 353.24298407 +/- 0.30             (J2000 equator)
# n 481.61023897 +/- 0.0788           Peri.  238.91582 +/- 0.06
# a 34791.4902 +/- 3.8                Node   262.44926 +/- 0.007
# e   0.8085877 +/- 0.000126          Incl.   20.71454 +/- 0.0018
# P1076.37m/0.747d           H 25.32  G  0.15   U 11.0
# q 6659.51691 +/- 4.02    Q 62923.4636 +/- 10
# From 7 observations 2023 May 3-15; mean residual 0".480
#
# 1 NoradU COSPAR   Epoch.epoch     dn/dt/2  d2n/dt2/6 BSTAR    T El# C
# 2 NoradU Inclina RAAscNode Eccent  ArgPeri MeanAno  MeanMotion Rev# C

# Worst residual: 10.45 km
# MJD 60035.000000 (2023 Apr  1  0:00)
A10VwK1 = A10VgVe = 2022-134ZZZ
1 79966U 22134ZZZ 23091.49919926  .00000000  00000-0  00000-0 0 19635
2 79966 021.1230 270.4744 8108764 225.9087 149.2548 01.34061046    01

# Worst residual: 11.47 km
# MJD 60036.000000 (2023 Apr  2  0:00)
A10VwK1 = A10VgVe = 2022-134ZZZ
1 79966U 22134ZZZ 23092.49919926  .00000000  00000-0  00000-0 0 19636
2 79966 021.1130 270.2374 8108605 226.3129 271.8414 01.34059239    08

# Worst residual: 10.01 km
# MJD 60037.000000 (2023 Apr  3  0:00)
A10VwK1 = A10VgVe = 2022-134ZZZ
1 79966U 22134ZZZ 23093.49919926  .00000000  00000-0  00000-0 0 19637
2 79966 021.1072 270.0184 8108310 226.6933 034.4520 01.34067962    02

# Worst residual: 10.65 km
# MJD 60038.000000 (2023 Apr  4  0:00)
A10VwK1 = A10VgVe = 2022-134ZZZ
1 79966U 22134ZZZ 23094.49919926  .00000000  00000-0  00000-0 0 19638
2 79966 021.1030 269.7976 8108316 227.0798 157.0411 01.34059564    00

# Worst residual: 11.66 km
# MJD 60039.000000 (2023 Apr  5  0:00)
A10VwK1 = A10VgVe = 2022-134ZZZ
1 79966U 22134ZZZ 23095.49919926  .00000000  00000-0  00000-0 0 19639
2 79966 021.0917 269.5566 8108252 227.4890 279.6274 01.34059739    04

# Worst residual: 10.74 km
# MJD 60040.000000 (2023 Apr  6  0:00)
A10VwK1 = A10VgVe = 2022-134ZZZ
1 79966U 22134ZZZ 23096.49919926  .00000000  00000-0  00000-0 0 19630
2 79966 021.0824 269.3288 8107973 227.8760 042.2355 01.34067976    05

# Worst residual: 11.20 km
# MJD 60041.000000 (2023 Apr  7  0:00)
A10VwK1 = A10VgVe = 2022-134ZZZ
1 79966U 22134ZZZ 23097.49919926  .00000000  00000-0  00000-0 0 19631
2 79966 021.0773 269.1048 8107729 228.2677 164.8179 01.34055948    02

# Worst residual: 11.14 km
# MJD 60042.000000 (2023 Apr  8  0:00)
A10VwK1 = A10VgVe = 2022-134ZZZ
1 79966U 22134ZZZ 23098.49919926  .00000000  00000-0  00000-0 0 19632
2 79966 021.0658 268.8625 8107479 228.6754 287.4066 01.34060209    06

# Worst residual: 10.61 km
# MJD 60043.000000 (2023 Apr  9  0:00)
A10VwK1 = A10VgVe = 2022-134ZZZ
1 79966U 22134ZZZ 23099.49919926  .00000000  00000-0  00000-0 0 19633
2 79966 021.0538 268.6259 8107129 229.0691 050.0057 01.34067909    09

# Worst residual: 12.10 km
# MJD 60044.000000 (2023 Apr 10  0:00)
A10VwK1 = A10VgVe = 2022-134ZZZ
1 79966U 22134ZZZ 23100.49919926  .00000000  00000-0  00000-0 0 19636
2 79966 021.0507 268.4066 8106539 229.4533 172.5950 01.34052948    01

# Worst residual: 9.19 km
# MJD 60045.000000 (2023 Apr 11  0:00)
A10VwK1 = A10VgVe = 2022-134ZZZ
1 79966U 22134ZZZ 23101.49919926  .00000000  00000-0  00000-0 0 19637
2 79966 021.0397 268.1669 8106528 229.8579 295.1881 01.34062651    03

# Worst residual: 11.53 km
# MJD 60046.000000 (2023 Apr 12  0:00)
A10VwK1 = A10VgVe = 2022-134ZZZ
1 79966U 22134ZZZ 23102.49919926  .00000000  00000-0  00000-0 0 19638
2 79966 021.0283 267.9320 8106516 230.2494 057.7841 01.34066598    09

# Worst residual: 12.95 km
# MJD 60047.000000 (2023 Apr 13  0:00)
A10VwK1 = A10VgVe = 2022-134ZZZ
1 79966U 22134ZZZ 23103.49919926  .00000000  00000-0  00000-0 0 19639
2 79966 021.0203 267.6983 8106238 230.6475 180.3748 01.34051258    03

# Worst residual: 9.27 km
# MJD 60048.000000 (2023 Apr 14  0:00)
A10VwK1 = A10VgVe = 2022-134ZZZ
1 79966U 22134ZZZ 23104.49919926  .00000000  00000-0  00000-0 0 19630
2 79966 021.0037 267.4382 8106779 231.0729 302.9617 01.34063675    09

# Worst residual: 11.87 km
# MJD 60049.000000 (2023 Apr 15  0:00)
A10VwK1 = A10VgVe = 2022-134ZZZ
1 79966U 22134ZZZ 23105.49919926  .00000000  00000-0  00000-0 0 19631
2 79966 020.9917 267.1969 8106496 231.4754 065.5512 01.34064581    03

# Worst residual: 11.82 km
# MJD 60050.000000 (2023 Apr 16  0:00)
A10VwK1 = A10VgVe = 2022-134ZZZ
1 79966U 22134ZZZ 23106.49919926  .00000000  00000-0  00000-0 0 19632
2 79966 020.9794 266.9454 8106099 231.8936 188.1326 01.34050994    05

# Worst residual: 9.62 km
# MJD 60051.000000 (2023 Apr 17  0:00)
A10VwK1 = A10VgVe = 2022-134ZZZ
1 79966U 22134ZZZ 23107.49919926  .00000000  00000-0  00000-0 0 19633
2 79966 020.9676 266.6950 8106169 232.3092 310.7143 01.34061300    02

# Worst residual: 10.83 km
# MJD 60052.000000 (2023 Apr 18  0:00)
A10VwK1 = A10VgVe = 2022-134ZZZ
1 79966U 22134ZZZ 23108.49919926  .00000000  00000-0  00000-0 0 19634
2 79966 020.9571 266.4523 8105374 232.7097 073.3098 01.34064110    09

# Worst residual: 11.19 km
# MJD 60053.000000 (2023 Apr 19  0:00)
A10VwK1 = A10VgVe = 2022-134ZZZ
1 79966U 22134ZZZ 23109.49919926  .00000000  00000-0  00000-0 0 19635
2 79966 020.9494 266.2121 8104854 233.1164 195.8924 01.34056179    01

# Worst residual: 12.33 km
# MJD 60054.000000 (2023 Apr 20  0:00)
A10VwK1 = A10VgVe = 2022-134ZZZ
1 79966U 22134ZZZ 23110.49919926  .00000000  00000-0  00000-0 0 19637
2 79966 020.9402 265.9780 8104602 233.5142 318.4767 01.34059633    04

# Worst residual: 12.84 km
# MJD 60055.000000 (2023 Apr 21  0:00)
A10VwK1 = A10VgVe = 2022-134ZZZ
1 79966U 22134ZZZ 23111.49919926  .00000000  00000-0  00000-0 0 19638
2 79966 020.9313 265.7424 8104382 233.9025 081.0847 01.34061313    07

# Worst residual: 11.43 km
# MJD 60056.000000 (2023 Apr 22  0:00)
A10VwK1 = A10VgVe = 2022-134ZZZ
1 79966U 22134ZZZ 23112.49919926  .00000000  00000-0  00000-0 0 19639
2 79966 020.9253 265.5110 8104144 234.2998 203.6658 01.34056008    06

# Worst residual: 11.76 km
# MJD 60057.000000 (2023 Apr 23  0:00)
A10VwK1 = A10VgVe = 2022-134ZZZ
1 79966U 22134ZZZ 23113.49919926  .00000000  00000-0  00000-0 0 19630
2 79966 020.9152 265.2711 8104315 234.7045 326.2467 01.34061727    00

# Worst residual: 13.48 km
# MJD 60058.000000 (2023 Apr 24  0:00)
A10VwK1 = A10VgVe = 2022-134ZZZ
1 79966U 22134ZZZ 23114.49919926  .00000000  00000-0  00000-0 0 19631
2 79966 020.9062 265.0309 8104272 235.0985 088.8514 01.34060625    00

# Worst residual: 11.11 km
# MJD 60059.000000 (2023 Apr 25  0:00)
A10VwK1 = A10VgVe = 2022-134ZZZ
1 79966U 22134ZZZ 23115.49919926  .00000000  00000-0  00000-0 0 19632
2 79966 020.9021 264.8065 8103904 235.4915 211.4268 01.34054375    04

# Worst residual: 9.91 km
# MJD 60060.000000 (2023 Apr 26  0:00)
A10VwK1 = A10VgVe = 2022-134ZZZ
1 79966U 22134ZZZ 23116.49919926  .00000000  00000-0  00000-0 0 19633
2 79966 020.8947 264.5752 8103789 235.8869 334.0092 01.34060863    09

# Worst residual: 11.87 km
# MJD 60061.000000 (2023 Apr 27  0:00)
A10VwK1 = A10VgVe = 2022-134ZZZ
1 79966U 22134ZZZ 23117.49919926  .00000000  00000-0  00000-0 0 19634
2 79966 020.8877 264.3372 8103943 236.2816 096.6067 01.34062748    03

# Worst residual: 10.46 km
# MJD 60062.000000 (2023 Apr 28  0:00)
A10VwK1 = A10VgVe = 2022-134ZZZ
1 79966U 22134ZZZ 23118.49919926  .00000000  00000-0  00000-0 0 19635
2 79966 020.8845 264.1179 8103255 236.6699 219.1842 01.34051640    02

# Worst residual: 8.92 km
# MJD 60063.000000 (2023 Apr 29  0:00)
A10VwK1 = A10VgVe = 2022-134ZZZ
1 79966U 22134ZZZ 23119.49919926  .00000000  00000-0  00000-0 0 19636
2 79966 020.8781 263.8921 8103229 237.0588 341.7740 01.34062370    06
